{
  "norad_id": 55657,
  "name": "STARLINK-5328",
  "history": [
    {
      "epoch": "2026-03-28T19:17:21.579072",
      "apogee_km": 574.409908286897,
      "perigee_km": 569.5859586322804,
      "latitude_deg": 15.446885889266222,
      "longitude_deg": -177.14268992003053,
      "semi_major_axis_km": 6950.134933459588,
      "eccentricity": 0.00034704,
      "inclination_deg": 69.9992,
      "raan_deg": 116.426,
      "arg_perigee_deg": 271.8914,
      "mean_anomaly_deg": 88.1847,
      "mean_motion_rev_day": 14.98348742
    },
    {
      "epoch": "2026-03-29T04:54:10.354464",
      "apogee_km": 574.453277497496,
      "perigee_km": 569.6576446993367,
      "latitude_deg": 23.893829605226355,
      "longitude_deg": -138.68849503993988,
      "semi_major_axis_km": 6950.192461098416,
      "eccentricity": 0.000345,
      "inclination_deg": 69.9984,
      "raan_deg": 115.4155,
      "arg_perigee_deg": 270.0642,
      "mean_anomaly_deg": 90.0121,
      "mean_motion_rev_day": 14.98330139
    }
  ]
}